CCSDS_OMM_VERS = 2.0
CREATION_DATE  = 
ORIGINATOR     = 

OBJECT_NAME    = STARLINK-36638
OBJECT_ID      = 2026-018F
CENTER_NAME    = EARTH
REF_FRAME      = TEME
TIME_SYSTEM    = UTC
MEAN_ELEMENT_THEORY = SGP/SGP4

EPOCH          = 2026-02-20T02:53:05.427744
MEAN_MOTION    = 15.80893871
ECCENTRICITY   = .00017087
INCLINATION    = 97.2837
RA_OF_ASC_NODE = 116.0860
ARG_OF_PERICENTER = 105.5305
MEAN_ANOMALY   = 254.6152

EPHEMERIS_TYPE = 0
CLASSIFICATION_TYPE = U
NORAD_CAT_ID   = 67594
ELEMENT_SET_NO = 999
REV_AT_EPOCH   = 454
BSTAR          = .89811589E-3
MEAN_MOTION_DOT = .176032E-2
MEAN_MOTION_DDOT = 0

CCSDS_OMM_VERS = 2.0
CREATION_DATE  = 
ORIGINATOR     = 

OBJECT_NAME    = STARLINK-36628
OBJECT_ID      = 2026-018G
CENTER_NAME    = EARTH
REF_FRAME      = TEME
TIME_SYSTEM    = UTC
MEAN_ELEMENT_THEORY = SGP/SGP4

EPOCH          = 2026-02-20T03:18:52.778304
MEAN_MOTION    = 15.75239349
ECCENTRICITY   = .00017993
INCLINATION    = 97.2831
RA_OF_ASC_NODE = 116.0606
ARG_OF_PERICENTER = 116.6168
MEAN_ANOMALY   = 243.5282

EPHEMERIS_TYPE = 0
CLASSIFICATION_TYPE = U
NORAD_CAT_ID   = 67595
ELEMENT_SET_NO = 999
REV_AT_EPOCH   = 454
BSTAR          = .66089861E-3
MEAN_MOTION_DOT = .99823E-3
MEAN_MOTION_DDOT = 0

CCSDS_OMM_VERS = 2.0
CREATION_DATE  = 
ORIGINATOR     = 

OBJECT_NAME    = STARLINK-36629
OBJECT_ID      = 2026-018H
CENTER_NAME    = EARTH
REF_FRAME      = TEME
TIME_SYSTEM    = UTC
MEAN_ELEMENT_THEORY = SGP/SGP4

EPOCH          = 2026-02-20T03:30:03.930048
MEAN_MOTION    = 15.75208498
ECCENTRICITY   = .00013099
INCLINATION    = 97.2829
RA_OF_ASC_NODE = 116.0495
ARG_OF_PERICENTER = 81.6394
MEAN_ANOMALY   = 278.5020

EPHEMERIS_TYPE = 0
CLASSIFICATION_TYPE = U
NORAD_CAT_ID   = 67596
ELEMENT_SET_NO = 999
REV_AT_EPOCH   = 454
BSTAR          = .83458515E-3
MEAN_MOTION_DOT = .126312E-2
MEAN_MOTION_DDOT = 0

CCSDS_OMM_VERS = 2.0
CREATION_DATE  = 
ORIGINATOR     = 

OBJECT_NAME    = STARLINK-36384
OBJECT_ID      = 2026-018J
CENTER_NAME    = EARTH
REF_FRAME      = TEME
TIME_SYSTEM    = UTC
MEAN_ELEMENT_THEORY = SGP/SGP4

EPOCH          = 2026-02-20T04:20:00.160224
MEAN_MOTION    = 15.80872748
ECCENTRICITY   = .00012984
INCLINATION    = 97.2839
RA_OF_ASC_NODE = 116.1563
ARG_OF_PERICENTER = 82.5460
MEAN_ANOMALY   = 277.5956

EPHEMERIS_TYPE = 0
CLASSIFICATION_TYPE = U
NORAD_CAT_ID   = 67597
ELEMENT_SET_NO = 999
REV_AT_EPOCH   = 455
BSTAR          = .65601473E-3
MEAN_MOTION_DOT = .127701E-2
MEAN_MOTION_DDOT = 0

CCSDS_OMM_VERS = 2.0
CREATION_DATE  = 
ORIGINATOR     = 

OBJECT_NAME    = STARLINK-36358
OBJECT_ID      = 2026-018K
CENTER_NAME    = EARTH
REF_FRAME      = TEME
TIME_SYSTEM    = UTC
MEAN_ELEMENT_THEORY = SGP/SGP4

EPOCH          = 2026-02-20T03:21:25.433280
MEAN_MOTION    = 15.75218964
ECCENTRICITY   = .0001415
INCLINATION    = 97.2833
RA_OF_ASC_NODE = 116.0581
ARG_OF_PERICENTER = 63.7991
MEAN_ANOMALY   = 296.3419

EPHEMERIS_TYPE = 0
CLASSIFICATION_TYPE = U
NORAD_CAT_ID   = 67598
ELEMENT_SET_NO = 999
REV_AT_EPOCH   = 454
BSTAR          = .66316165E-3
MEAN_MOTION_DOT = .100077E-2
MEAN_MOTION_DDOT = 0

CCSDS_OMM_VERS = 2.0
CREATION_DATE  = 
ORIGINATOR     = 

OBJECT_NAME    = STARLINK-36582
OBJECT_ID      = 2026-018L
CENTER_NAME    = EARTH
REF_FRAME      = TEME
TIME_SYSTEM    = UTC
MEAN_ELEMENT_THEORY = SGP/SGP4

EPOCH          = 2026-02-20T06:00:02.000160
MEAN_MOTION    = 15.75198469
ECCENTRICITY   = .0001405
INCLINATION    = 97.2841
RA_OF_ASC_NODE = 116.2132
ARG_OF_PERICENTER = 75.2148
MEAN_ANOMALY   = 277.0806

EPHEMERIS_TYPE = 0
CLASSIFICATION_TYPE = U
NORAD_CAT_ID   = 67599
ELEMENT_SET_NO = 999
REV_AT_EPOCH   = 465
BSTAR          = -.41935926E-3
MEAN_MOTION_DOT = -.62249E-3
MEAN_MOTION_DDOT = 0

CCSDS_OMM_VERS = 2.0
CREATION_DATE  = 
ORIGINATOR     = 

OBJECT_NAME    = STARLINK-36640
OBJECT_ID      = 2026-018M
CENTER_NAME    = EARTH
REF_FRAME      = TEME
TIME_SYSTEM    = UTC
MEAN_ELEMENT_THEORY = SGP/SGP4

EPOCH          = 2026-02-20T03:27:00.517536
MEAN_MOTION    = 15.75213227
ECCENTRICITY   = .0001182
INCLINATION    = 97.2833
RA_OF_ASC_NODE = 116.0527
ARG_OF_PERICENTER = 71.5950
MEAN_ANOMALY   = 288.5444

EPHEMERIS_TYPE = 0
CLASSIFICATION_TYPE = U
NORAD_CAT_ID   = 67600
ELEMENT_SET_NO = 999
REV_AT_EPOCH   = 454
BSTAR          = .94692396E-3
MEAN_MOTION_DOT = .143653E-2
MEAN_MOTION_DDOT = 0

CCSDS_OMM_VERS = 2.0
CREATION_DATE  = 
ORIGINATOR     = 

OBJECT_NAME    = STARLINK-36635
OBJECT_ID      = 2026-018N
CENTER_NAME    = EARTH
REF_FRAME      = TEME
TIME_SYSTEM    = UTC
MEAN_ELEMENT_THEORY = SGP/SGP4

EPOCH          = 2026-02-20T04:15:55.294848
MEAN_MOTION    = 15.80790089
ECCENTRICITY   = .00012548
INCLINATION    = 97.2842
RA_OF_ASC_NODE = 116.1598
ARG_OF_PERICENTER = 69.8038
MEAN_ANOMALY   = 290.3365

EPHEMERIS_TYPE = 0
CLASSIFICATION_TYPE = U
NORAD_CAT_ID   = 67601
ELEMENT_SET_NO = 999
REV_AT_EPOCH   = 455
BSTAR          = -.75329284E-4
MEAN_MOTION_DOT = -.1453E-3
MEAN_MOTION_DDOT = 0

CCSDS_OMM_VERS = 2.0
CREATION_DATE  = 
ORIGINATOR     = 

OBJECT_NAME    = STARLINK-36631
OBJECT_ID      = 2026-018P
CENTER_NAME    = EARTH
REF_FRAME      = TEME
TIME_SYSTEM    = UTC
MEAN_ELEMENT_THEORY = SGP/SGP4

EPOCH          = 2026-02-20T04:12:29.197152
MEAN_MOTION    = 15.80870542
ECCENTRICITY   = .00014824
INCLINATION    = 97.2845
RA_OF_ASC_NODE = 116.1631
ARG_OF_PERICENTER = 94.9002
MEAN_ANOMALY   = 265.2436

EPHEMERIS_TYPE = 0
CLASSIFICATION_TYPE = U
NORAD_CAT_ID   = 67602
ELEMENT_SET_NO = 999
REV_AT_EPOCH   = 455
BSTAR          = .60292434E-3
MEAN_MOTION_DOT = .117203E-2
MEAN_MOTION_DDOT = 0

CCSDS_OMM_VERS = 2.0
CREATION_DATE  = 
ORIGINATOR     = 

OBJECT_NAME    = STARLINK-36626
OBJECT_ID      = 2026-018Q
CENTER_NAME    = EARTH
REF_FRAME      = TEME
TIME_SYSTEM    = UTC
MEAN_ELEMENT_THEORY = SGP/SGP4

EPOCH          = 2026-02-20T06:00:02.000160
MEAN_MOTION    = 15.75207106
ECCENTRICITY   = .00012356
INCLINATION    = 97.2841
RA_OF_ASC_NODE = 116.2281
ARG_OF_PERICENTER = 102.3985
MEAN_ANOMALY   = 283.8865

EPHEMERIS_TYPE = 0
CLASSIFICATION_TYPE = U
NORAD_CAT_ID   = 67603
ELEMENT_SET_NO = 999
REV_AT_EPOCH   = 454
BSTAR          = -.43496117E-3
MEAN_MOTION_DOT = -.64566E-3
MEAN_MOTION_DDOT = 0

CCSDS_OMM_VERS = 2.0
CREATION_DATE  = 
ORIGINATOR     = 

OBJECT_NAME    = STARLINK-36605
OBJECT_ID      = 2026-018R
CENTER_NAME    = EARTH
REF_FRAME      = TEME
TIME_SYSTEM    = UTC
MEAN_ELEMENT_THEORY = SGP/SGP4

EPOCH          = 2026-02-20T03:15:50.011200
MEAN_MOTION    = 15.75215692
ECCENTRICITY   = .00013737
INCLINATION    = 97.2831
RA_OF_ASC_NODE = 116.0635
ARG_OF_PERICENTER = 89.3428
MEAN_ANOMALY   = 270.7995

EPHEMERIS_TYPE = 0
CLASSIFICATION_TYPE = U
NORAD_CAT_ID   = 67604
ELEMENT_SET_NO = 999
REV_AT_EPOCH   = 454
BSTAR          = .43371664E-3
MEAN_MOTION_DOT = .65129E-3
MEAN_MOTION_DDOT = 0

CCSDS_OMM_VERS = 2.0
CREATION_DATE  = 
ORIGINATOR     = 

OBJECT_NAME    = STARLINK-36281
OBJECT_ID      = 2026-018S
CENTER_NAME    = EARTH
REF_FRAME      = TEME
TIME_SYSTEM    = UTC
MEAN_ELEMENT_THEORY = SGP/SGP4

EPOCH          = 2026-02-20T04:10:41.417472
MEAN_MOTION    = 15.80886330
ECCENTRICITY   = .00024642
INCLINATION    = 97.2849
RA_OF_ASC_NODE = 116.1642
ARG_OF_PERICENTER = 108.0508
MEAN_ANOMALY   = 252.1029

EPHEMERIS_TYPE = 0
CLASSIFICATION_TYPE = U
NORAD_CAT_ID   = 67605
ELEMENT_SET_NO = 999
REV_AT_EPOCH   = 455
BSTAR          = .65353224E-3
MEAN_MOTION_DOT = .127303E-2
MEAN_MOTION_DDOT = 0

