STARLINK-36638          
1 67594U 26018F   26051.12020171  .00176032  00000+0  89812-3 0  9995
2 67594  97.2837 116.0860 0001708 105.5305 254.6152 15.80893871  4544
STARLINK-36628          
1 67595U 26018G   26051.13811086  .00099823  00000+0  66090-3 0  9995
2 67595  97.2831 116.0606 0001799 116.6168 243.5282 15.75239349  4546
STARLINK-36629          
1 67596U 26018H   26051.14587882  .00126312  00000+0  83459-3 0  9993
2 67596  97.2829 116.0495 0001309  81.6394 278.5020 15.75208498  4548
STARLINK-36384          
1 67597U 26018J   26051.18055741  .00127701  00000+0  65601-3 0  9994
2 67597  97.2839 116.1563 0001298  82.5460 277.5956 15.80872748  4557
STARLINK-36358          
1 67598U 26018K   26051.13987770  .00100077  00000+0  66316-3 0  9997
2 67598  97.2833 116.0581 0001415  63.7991 296.3419 15.75218964  4542
STARLINK-36582          
1 67599U 26018L   26051.25002315 -.00062249  00000+0 -41936-3 0  9995
2 67599  97.2841 116.2132 0001405  75.2148 277.0806 15.75198469  4652
STARLINK-36640          
1 67600U 26018M   26051.14375599  .00143653  00000+0  94692-3 0  9997
2 67600  97.2833 116.0527 0001182  71.5950 288.5444 15.75213227  4547
STARLINK-36635          
1 67601U 26018N   26051.17772332 -.00014530  00000+0 -75329-4 0  9997
2 67601  97.2842 116.1598 0001254  69.8038 290.3365 15.80790089  4550
STARLINK-36631          
1 67602U 26018P   26051.17533793  .00117203  00000+0  60292-3 0  9995
2 67602  97.2845 116.1631 0001482  94.9002 265.2436 15.80870542  4558
STARLINK-36626          
1 67603U 26018Q   26051.25002315 -.00064566  00000+0 -43496-3 0  9998
2 67603  97.2841 116.2281 0001235 102.3985 283.8865 15.75207106  4542
STARLINK-36605          
1 67604U 26018R   26051.13599550  .00065129  00000+0  43372-3 0  9995
2 67604  97.2831 116.0635 0001373  89.3428 270.7995 15.75215692  4540
STARLINK-36281          
1 67605U 26018S   26051.17409048  .00127303  00000+0  65353-3 0  9998
2 67605  97.2849 116.1642 0002464 108.0508 252.1029 15.80886330  4551
